{"epoch":1784902576,"count":18312,"objects":[{"id":"53653","name":"STARLINK-4390","type":"PAYLOAD","l1":"1 53653U 22105F   26205.25002315  .00157047  00000-0  21051-2 0  9990","l2":"2 53653  97.5991  90.4057 0001824  87.2328 197.1670 15.57427642  5878"},{"id":"53654","name":"STARLINK-4420","type":"PAYLOAD","l1":"1 53654U 22105G   26205.24413022 -.00000737  00000-0 -47196-4 0  9996","l2":"2 53654  97.2835  83.3227 0002251  88.0962 272.0524 15.05654399213844"},{"id":"53655","name":"STARLINK-4470","type":"PAYLOAD","l1":"1 53655U 22105H   26205.25002315 -.00502373  00000-0 -12551-1 0  9994","l2":"2 53655  97.6037  92.0913 0002134  86.3867 173.3744 15.42072113  5785"},{"id":"53656","name":"STARLINK-4466","type":"PAYLOAD","l1":"1 53656U 22105J   26205.22893974  .00000017  00000-0  50658-5 0  9991","l2":"2 53656  97.2842  82.2708 0002459  86.5720 273.5789 15.05654795213772"},{"id":"53658","name":"STARLINK-4452","type":"PAYLOAD","l1":"1 53658U 22105L   26205.20259942  .00000304  00000-0  24978-4 0  9996","l2":"2 53658  97.2842  83.3719 0002060  96.8156 263.3306 15.05653182213842"},{"id":"53660","name":"STARLINK-4473","type":"PAYLOAD","l1":"1 53660U 22105N   26205.22062797  .00000477  00000-0  36946-4 0  9990","l2":"2 53660  97.2835  82.2684 0001953  84.3214 275.8236 15.05654720213774"},{"id":"53661","name":"STARLINK-4472","type":"PAYLOAD","l1":"1 53661U 22105P   26205.25110056  .00002926  00000-0  20660-3 0  9992","l2":"2 53661  97.2841  82.2344 0002263  83.3380 276.8105 15.05652330213774"},{"id":"53662","name":"STARLINK-4357","type":"PAYLOAD","l1":"1 53662U 22105Q   26205.25002315  .00008682  00000-0  24246-3 0  9990","l2":"2 53662  97.6008  91.4514 0001680  93.2841 224.4077 15.36969228  5945"},{"id":"53663","name":"STARLINK-4457","type":"PAYLOAD","l1":"1 53663U 22105R   26205.25002315 -.00011362  00000-0 -72051-3 0  9999","l2":"2 53663  97.2862  83.4169 0002838  79.5523 208.1441 15.08804410  5783"},{"id":"53664","name":"STARLINK-4471","type":"PAYLOAD","l1":"1 53664U 22105S   26205.25002315  .00119653  00000-0  71634-2 0  9995","l2":"2 53664  97.2844  83.3422 0001671  89.2692  48.7423 15.10448760  5686"},{"id":"53665","name":"STARLINK-4334","type":"PAYLOAD","l1":"1 53665U 22105T   26205.25002315 -.00807035  00000-0 -15312-1 0  9996","l2":"2 53665  97.6038  91.9979 0001788  86.2045 346.3304 15.50729478  5931"},{"id":"53667","name":"STARLINK-4406","type":"PAYLOAD","l1":"1 53667U 22105V   26205.25002315  .00053799  00000-0  13666-2 0  9997","l2":"2 53667  97.5985  90.0459 0001756  78.1645 291.2169 15.39462585  5877"},{"id":"53668","name":"STARLINK-4458","type":"PAYLOAD","l1":"1 53668U 22105W   26205.25002315 -.00833696  00000-0 -22778-1 0  9995","l2":"2 53668  97.6034  92.1071 0001809  81.7359   3.2820 15.39765791  5957"},{"id":"53669","name":"STARLINK-4464","type":"PAYLOAD","l1":"1 53669U 22105X   26205.25002315  .00132886  00000-0  13556-2 0  9992","l2":"2 53669  97.6021  90.5495 0001523  95.0035 269.4408 15.64653183  5922"},{"id":"53670","name":"STARLINK-4459","type":"PAYLOAD","l1":"1 53670U 22105Y   26205.25519571  .00001955  00000-0  13932-3 0  9992","l2":"2 53670  97.2855  83.4076 0002106  90.6802 269.4667 15.05669249213857"},{"id":"53671","name":"STARLINK-4440","type":"PAYLOAD","l1":"1 53671U 22105Z   26205.24277550 -.00000253  00000-0 -13609-4 0  9994","l2":"2 53671  97.2841  82.2148 0002524  89.7758 270.3759 15.05653799213770"},{"id":"53672","name":"STARLINK-4428","type":"PAYLOAD","l1":"1 53672U 22105AA  26205.21232226  .00003461  00000-0  24360-3 0  9990","l2":"2 53672  97.2835  82.2416 0002313  70.9286 289.2192 15.05654159213777"},{"id":"53673","name":"STARLINK-4456","type":"PAYLOAD","l1":"1 53673U 22105AB  26205.25002315  .00507933  00000-0  41424-2 0  9991","l2":"2 53673  97.6040  89.5731 0001344  94.1764  67.4143 15.69080730  5603"},{"id":"53674","name":"STARLINK-4620","type":"PAYLOAD","l1":"1 53674U 22105AC  26205.21785613  .00000502  00000-0  38684-4 0  9993","l2":"2 53674  97.2837  82.2291 0002239  82.2790 277.8692 15.05654398213778"},{"id":"53675","name":"STARLINK-4617","type":"PAYLOAD","l1":"1 53675U 22105AD  26205.23582961  .00000023  00000-0  54774-5 0  9994","l2":"2 53675  97.2838  83.4217 0002169  85.4743 274.6732 15.05655022213850"},{"id":"53676","name":"STARLINK-4621","type":"PAYLOAD","l1":"1 53676U 22105AE  26205.19847944  .00000275  00000-0  22944-4 0  9997","l2":"2 53676  97.2846  82.2468 0002659  81.4325 278.7204 15.05653999213772"},{"id":"53677","name":"STARLINK-4579","type":"PAYLOAD","l1":"1 53677U 22105AF  26205.19429004  .00000511  00000-0  39346-4 0  9998","l2":"2 53677  97.2845  83.3311 0002570  87.4051 272.7471 15.05652294213840"},{"id":"53679","name":"STARLINK-4632","type":"PAYLOAD","l1":"1 53679U 22105AH  26205.22752625  .00000275  00000-0  22937-4 0  9997","l2":"2 53679  97.2848  83.4302 0001876  95.5997 264.5444 15.05656324213851"},{"id":"53680","name":"STARLINK-4630","type":"PAYLOAD","l1":"1 53680U 22105AJ  26205.19151910 -.00000086  00000-0 -20792-5 0  9995","l2":"2 53680  97.2844  83.3095 0002427  87.7771 272.3735 15.05657255213846"},{"id":"53681","name":"STARLINK-4424","type":"PAYLOAD","l1":"1 53681U 22105AK  26205.25002315  .00440700  76834-4  13505-2 0  9999","l2":"2 53681  97.6002  92.4521 0001314 116.9338 316.3841 15.91873750  5919"},{"id":"53682","name":"STARLINK-4438","type":"PAYLOAD","l1":"1 53682U 22105AL  26205.21090739  .00001564  00000-0  11226-3 0  9991","l2":"2 53682  97.2844  83.2764 0002109  75.8669 284.2792 15.05652494213846"},{"id":"53683","name":"STARLINK-4625","type":"PAYLOAD","l1":"1 53683U 22105AM  26205.25662918 -.00000397  00000-0 -23611-4 0  9997","l2":"2 53683  97.2850  82.3113 0002348  87.0306 273.1190 15.05653948213787"},{"id":"53684","name":"STARLINK-4624","type":"PAYLOAD","l1":"1 53684U 22105AN  26205.25939285  .00000594  00000-0  45052-4 0  9992","l2":"2 53684  97.2842  82.2644 0002278  90.4875 269.6614 15.05652750213756"},{"id":"53685","name":"STARLINK-4626","type":"PAYLOAD","l1":"1 53685U 22105AP  26205.23172438 -.00002220  00000-0 -15007-3 0  9996","l2":"2 53685  97.2851  82.1855 0001941  88.7356 271.4094 15.05633497213772"},{"id":"53686","name":"STARLINK-4467","type":"PAYLOAD","l1":"1 53686U 22105AQ  26205.22339385  .00004689  00000-0  32842-3 0  9997","l2":"2 53686  97.2831  82.1888 0002510  74.0264 286.1240 15.05679238213775"}]}