OBJECT_NAME,OBJECT_ID,EPOCH,MEAN_MOTION,ECCENTRICITY,INCLINATION,RA_OF_ASC_NODE,ARG_OF_PERICENTER,MEAN_ANOMALY,EPHEMERIS_TYPE,CLASSIFICATION_TYPE,NORAD_CAT_ID,ELEMENT_SET_NO,REV_AT_EPOCH,BSTAR,MEAN_MOTION_DOT,MEAN_MOTION_DDOT
STARLINK-4390,2022-105F,2026-07-24T06:00:02.000160,15.57427642,.00018239,97.5991,90.4057,87.2328,197.1670,0,U,53653,999,587,.21051292E-2,.157047E-2,0
STARLINK-4420,2022-105G,2026-07-24T05:51:32.851008,15.05654399,.0002251,97.2835,83.3227,88.0962,272.0524,0,U,53654,999,21384,-.47196406E-4,-.737E-5,0
STARLINK-4470,2022-105H,2026-07-24T06:00:02.000160,15.42072113,.00021341,97.6037,92.0913,86.3867,173.3744,0,U,53655,999,578,-.12550872E-1,-.502373E-2,0
STARLINK-4466,2022-105J,2026-07-24T05:29:40.393536,15.05654795,.00024593,97.2842,82.2708,86.5720,273.5789,0,U,53656,999,21377,.5065827E-5,.17E-6,0
STARLINK-4452,2022-105L,2026-07-24T04:51:44.589888,15.05653182,.00020603,97.2842,83.3719,96.8156,263.3306,0,U,53658,999,21384,.24978442E-4,.304E-5,0
STARLINK-4473,2022-105N,2026-07-24T05:17:42.256608,15.05654720,.00019528,97.2835,82.2684,84.3214,275.8236,0,U,53660,999,21377,.36946366E-4,.477E-5,0
STARLINK-4472,2022-105P,2026-07-24T06:01:35.088384,15.05652330,.00022632,97.2841,82.2344,83.3380,276.8105,0,U,53661,999,21377,.20659699E-3,.2926E-4,0
STARLINK-4357,2022-105Q,2026-07-24T06:00:02.000160,15.36969228,.00016795,97.6008,91.4514,93.2841,224.4077,0,U,53662,999,594,.24246275E-3,.8682E-4,0
STARLINK-4457,2022-105R,2026-07-24T06:00:02.000160,15.08804410,.00028379,97.2862,83.4169,79.5523,208.1441,0,U,53663,999,578,-.72051183E-3,-.11362E-3,0
STARLINK-4471,2022-105S,2026-07-24T06:00:02.000160,15.10448760,.00016711,97.2844,83.3422,89.2692,48.7423,0,U,53664,999,568,.7163358E-2,.119653E-2,0
STARLINK-4334,2022-105T,2026-07-24T06:00:02.000160,15.50729478,.00017883,97.6038,91.9979,86.2045,346.3304,0,U,53665,999,593,-.15311942E-1,-.807035E-2,0
STARLINK-4406,2022-105V,2026-07-24T06:00:02.000160,15.39462585,.00017557,97.5985,90.0459,78.1645,291.2169,0,U,53667,999,587,.13665997E-2,.53799E-3,0
STARLINK-4458,2022-105W,2026-07-24T06:00:02.000160,15.39765791,.00018086,97.6034,92.1071,81.7359,3.2820,0,U,53668,999,595,-.22777995E-1,-.833696E-2,0
STARLINK-4464,2022-105X,2026-07-24T06:00:02.000160,15.64653183,.00015233,97.6021,90.5495,95.0035,269.4408,0,U,53669,999,592,.13555549E-2,.132886E-2,0
STARLINK-4459,2022-105Y,2026-07-24T06:07:28.909344,15.05669249,.00021061,97.2855,83.4076,90.6802,269.4667,0,U,53670,999,21385,.13931812E-3,.1955E-4,0
STARLINK-4440,2022-105Z,2026-07-24T05:49:35.803200,15.05653799,.00025243,97.2841,82.2148,89.7758,270.3759,0,U,53671,999,21377,-.13609315E-4,-.253E-5,0
STARLINK-4428,2022-105AA,2026-07-24T05:05:44.643264,15.05654159,.00023133,97.2835,82.2416,70.9286,289.2192,0,U,53672,999,21377,.24359916E-3,.3461E-4,0
STARLINK-4456,2022-105AB,2026-07-24T06:00:02.000160,15.69080730,.00013442,97.6040,89.5731,94.1764,67.4143,0,U,53673,999,560,.41424282E-2,.507933E-2,0
STARLINK-4620,2022-105AC,2026-07-24T05:13:42.769632,15.05654398,.00022386,97.2837,82.2291,82.2790,277.8692,0,U,53674,999,21377,.3868446E-4,.502E-5,0
STARLINK-4617,2022-105AD,2026-07-24T05:39:35.678304,15.05655022,.00021685,97.2838,83.4217,85.4743,274.6732,0,U,53675,999,21385,.5477418E-5,.23E-6,0
STARLINK-4621,2022-105AE,2026-07-24T04:45:48.623616,15.05653999,.00026588,97.2846,82.2468,81.4325,278.7204,0,U,53676,999,21377,.22944144E-4,.275E-5,0
STARLINK-4579,2022-105AF,2026-07-24T04:39:46.659456,15.05652294,.000257,97.2845,83.3311,87.4051,272.7471,0,U,53677,999,21384,.39346294E-4,.511E-5,0
STARLINK-4632,2022-105AH,2026-07-24T05:27:38.268000,15.05656324,.00018759,97.2848,83.4302,95.5997,264.5444,0,U,53679,999,21385,.2293663E-4,.275E-5,0
STARLINK-4630,2022-105AJ,2026-07-24T04:35:47.250240,15.05657255,.00024273,97.2844,83.3095,87.7771,272.3735,0,U,53680,999,21384,-.2079212E-5,-.86E-6,0
STARLINK-4424,2022-105AK,2026-07-24T06:00:02.000160,15.91873750,.00013143,97.6002,92.4521,116.9338,316.3841,0,U,53681,999,591,.13505034E-2,.4407E-2,.76834107E-4
STARLINK-4438,2022-105AL,2026-07-24T05:03:42.398496,15.05652494,.00021086,97.2844,83.2764,75.8669,284.2792,0,U,53682,999,21384,.11226126E-3,.1564E-4,0
STARLINK-4625,2022-105AM,2026-07-24T06:09:32.761152,15.05653948,.00023485,97.2850,82.3113,87.0306,273.1190,0,U,53683,999,21378,-.23611256E-4,-.397E-5,0
STARLINK-4624,2022-105AN,2026-07-24T06:13:31.542240,15.05652750,.00022778,97.2842,82.2644,90.4875,269.6614,0,U,53684,999,21375,.45051573E-4,.594E-5,0
STARLINK-4626,2022-105AP,2026-07-24T05:33:40.986432,15.05633497,.00019414,97.2851,82.1855,88.7356,271.4094,0,U,53685,999,21377,-.15007476E-3,-.222E-4,0
STARLINK-4467,2022-105AQ,2026-07-24T05:21:41.228640,15.05679238,.00025097,97.2831,82.1888,74.0264,286.1240,0,U,53686,999,21377,.32841673E-3,.4689E-4,0
